TRANSPORTER-16 OBJECT AJ
1 68448U 26067AJ  26104.14200914  .00003684  00000+0  18636-3 0  9992
2 68448  97.4470  63.5518 0001784 331.2213  28.8922 15.17648278  2222
