{
  "norad_id": 68448,
  "name": "TRANSPORTER-16 OBJECT AJ",
  "history": [
    {
      "epoch": "2026-04-14T03:24:29.589696Z",
      "apogee_km": 514.1796782049732,
      "perigee_km": 511.7209382533965,
      "latitude_deg": 1.9026907144839457e-06,
      "longitude_deg": 170.105825313218,
      "height_km": 514.9597266526055,
      "semi_major_axis_km": 6891.087308229185,
      "eccentricity": 0.0001784,
      "inclination_deg": 97.447,
      "raan_deg": 63.5518,
      "arg_perigee_deg": 331.2213,
      "mean_anomaly_deg": 28.8922,
      "mean_motion_rev_day": 15.17648278
    }
  ]
}